[
  {
    "OBJECT_NAME": "STARLINK-33911",
    "OBJECT_ID": "25091C",
    "EPOCH": "2025-11-11T03:20:20.626368",
    "MEAN_MOTION": 15.27607759,
    "ECCENTRICITY": 9.35e-05,
    "INCLINATION": 43.0007,
    "RA_OF_ASC_NODE": 354.8889,
    "ARG_OF_PERICENTER": 268.5542,
    "MEAN_ANOMALY": 91.5202,
    "EPHEMERIS_TYPE": 0,
    "CLASSIFICATION_TYPE": "U",
    "NORAD_CAT_ID": 63777,
    "ELEMENT_SET_NO": 999,
    "REV_AT_EPOCH": 3085,
    "BSTAR": 0.00099684,
    "MEAN_MOTION_DOT": 0.00027294,
    "MEAN_MOTION_DDOT": 0.0,
    "TLE_LINE1": "1 63777U 25091C   25315.13912762  .00027294  00000+0  99684-3 0  9996",
    "TLE_LINE2": "2 63777  43.0007 354.8889 0000935 268.5542  91.5202 15.27607759 30854",
    "COMMENT": "Grouped by shell and plane from TLE"
  },
  {
    "OBJECT_NAME": "STARLINK-33933",
    "OBJECT_ID": "25091K",
    "EPOCH": "2025-11-11T02:08:23.215776",
    "MEAN_MOTION": 15.2759637,
    "ECCENTRICITY": 9.9e-05,
    "INCLINATION": 43.002,
    "RA_OF_ASC_NODE": 355.3801,
    "ARG_OF_PERICENTER": 267.5847,
    "MEAN_ANOMALY": 92.4891,
    "EPHEMERIS_TYPE": 0,
    "CLASSIFICATION_TYPE": "U",
    "NORAD_CAT_ID": 63784,
    "ELEMENT_SET_NO": 999,
    "REV_AT_EPOCH": 3095,
    "BSTAR": 0.0013045,
    "MEAN_MOTION_DOT": 0.00035827,
    "MEAN_MOTION_DDOT": 0.0,
    "TLE_LINE1": "1 63784U 25091K   25315.08915759  .00035827  00000+0  13045-2 0  9994",
    "TLE_LINE2": "2 63784  43.0020 355.3801 0000990 267.5847  92.4891 15.27596370 30956",
    "COMMENT": "Grouped by shell and plane from TLE"
  },
  {
    "OBJECT_NAME": "STARLINK-34244",
    "OBJECT_ID": "25190A",
    "EPOCH": "2025-11-11T08:00:03.000384",
    "MEAN_MOTION": 15.3015599,
    "ECCENTRICITY": 0.0001681,
    "INCLINATION": 53.1595,
    "RA_OF_ASC_NODE": 358.1344,
    "ARG_OF_PERICENTER": 62.6244,
    "MEAN_ANOMALY": 233.8523,
    "EPHEMERIS_TYPE": 0,
    "CLASSIFICATION_TYPE": "U",
    "NORAD_CAT_ID": 65351,
    "ELEMENT_SET_NO": 999,
    "REV_AT_EPOCH": 580,
    "BSTAR": 0.00064952,
    "MEAN_MOTION_DOT": 0.00018901,
    "MEAN_MOTION_DDOT": 0.0,
    "TLE_LINE1": "1 65351U 25190A   25315.33336806  .00018901  00000+0  64952-3 0  9992",
    "TLE_LINE2": "2 65351  53.1595 358.1344 0001681  62.6244 233.8523 15.30155990  5805",
    "COMMENT": "Grouped by shell and plane from TLE"
  },
  {
    "OBJECT_NAME": "STARLINK-34716",
    "OBJECT_ID": "25190B",
    "EPOCH": "2025-11-11T06:21:22.161312",
    "MEAN_MOTION": 15.30221918,
    "ECCENTRICITY": 0.0001224,
    "INCLINATION": 53.1609,
    "RA_OF_ASC_NODE": 358.2665,
    "ARG_OF_PERICENTER": 82.5623,
    "MEAN_ANOMALY": 277.5517,
    "EPHEMERIS_TYPE": 0,
    "CLASSIFICATION_TYPE": "U",
    "NORAD_CAT_ID": 65352,
    "ELEMENT_SET_NO": 999,
    "REV_AT_EPOCH": 1162,
    "BSTAR": 0.0014579,
    "MEAN_MOTION_DOT": 0.00043098,
    "MEAN_MOTION_DDOT": 0.0,
    "TLE_LINE1": "1 65352U 25190B   25315.26483983  .00043098  00000+0  14579-2 0  9998",
    "TLE_LINE2": "2 65352  53.1609 358.2665 0001224  82.5623 277.5517 15.30221918 11623",
    "COMMENT": "Grouped by shell and plane from TLE"
  },
  {
    "OBJECT_NAME": "STARLINK-34828",
    "OBJECT_ID": "25190C",
    "EPOCH": "2025-11-11T07:17:24.670464",
    "MEAN_MOTION": 15.30190572,
    "ECCENTRICITY": 0.0001886,
    "INCLINATION": 53.16,
    "RA_OF_ASC_NODE": 357.7976,
    "ARG_OF_PERICENTER": 75.8199,
    "MEAN_ANOMALY": 284.3011,
    "EPHEMERIS_TYPE": 0,
    "CLASSIFICATION_TYPE": "U",
    "NORAD_CAT_ID": 65353,
    "ELEMENT_SET_NO": 999,
    "REV_AT_EPOCH": 1163,
    "BSTAR": 0.0015846,
    "MEAN_MOTION_DOT": 0.00046855,
    "MEAN_MOTION_DDOT": 0.0,
    "TLE_LINE1": "1 65353U 25190C   25315.30375776  .00046855  00000+0  15846-2 0  9996",
    "TLE_LINE2": "2 65353  53.1600 357.7976 0001886  75.8199 284.3011 15.30190572 11638",
    "COMMENT": "Grouped by shell and plane from TLE"
  },
  {
    "OBJECT_NAME": "STARLINK-34785",
    "OBJECT_ID": "25190D",
    "EPOCH": "2025-11-11T06:54:46.867680",
    "MEAN_MOTION": 15.30200993,
    "ECCENTRICITY": 0.0001001,
    "INCLINATION": 53.1583,
    "RA_OF_ASC_NODE": 358.4112,
    "ARG_OF_PERICENTER": 9.6436,
    "MEAN_ANOMALY": 350.4584,
    "EPHEMERIS_TYPE": 0,
    "CLASSIFICATION_TYPE": "U",
    "NORAD_CAT_ID": 65354,
    "ELEMENT_SET_NO": 999,
    "REV_AT_EPOCH": 1115,
    "BSTAR": 0.0009597000000000001,
    "MEAN_MOTION_DOT": 0.00028173,
    "MEAN_MOTION_DDOT": 0.0,
    "TLE_LINE1": "1 65354U 25190D   25315.28804245  .00028173  00000+0  95970-3 0  9992",
    "TLE_LINE2": "2 65354  53.1583 358.4112 0001001   9.6436 350.4584 15.30200993 11153",
    "COMMENT": "Grouped by shell and plane from TLE"
  },
  {
    "OBJECT_NAME": "STARLINK-34823",
    "OBJECT_ID": "25190E",
    "EPOCH": "2025-11-11T02:59:33.743904",
    "MEAN_MOTION": 15.30232786,
    "ECCENTRICITY": 0.0001115,
    "INCLINATION": 53.1618,
    "RA_OF_ASC_NODE": 358.8116,
    "ARG_OF_PERICENTER": 93.7962,
    "MEAN_ANOMALY": 266.3167,
    "EPHEMERIS_TYPE": 0,
    "CLASSIFICATION_TYPE": "U",
    "NORAD_CAT_ID": 65355,
    "ELEMENT_SET_NO": 999,
    "REV_AT_EPOCH": 1160,
    "BSTAR": 0.0012229,
    "MEAN_MOTION_DOT": 0.00036073,
    "MEAN_MOTION_DDOT": 0.0,
    "TLE_LINE1": "1 65355U 25190E   25315.12469611  .00036073  00000+0  12229-2 0  9993",
    "TLE_LINE2": "2 65355  53.1618 358.8116 0001115  93.7962 266.3167 15.30232786 11602",
    "COMMENT": "Grouped by shell and plane from TLE"
  },
  {
    "OBJECT_NAME": "STARLINK-34680",
    "OBJECT_ID": "25190F",
    "EPOCH": "2025-11-11T07:02:22.300224",
    "MEAN_MOTION": 15.30227931,
    "ECCENTRICITY": 0.0001191,
    "INCLINATION": 53.1592,
    "RA_OF_ASC_NODE": 358.4436,
    "ARG_OF_PERICENTER": 90.6531,
    "MEAN_ANOMALY": 269.4606,
    "EPHEMERIS_TYPE": 0,
    "CLASSIFICATION_TYPE": "U",
    "NORAD_CAT_ID": 65356,
    "ELEMENT_SET_NO": 999,
    "REV_AT_EPOCH": 1115,
    "BSTAR": 0.0010354,
    "MEAN_MOTION_DOT": 0.00030458,
    "MEAN_MOTION_DDOT": 0.0,
    "TLE_LINE1": "1 65356U 25190F   25315.29331366  .00030458  00000+0  10354-2 0  9995",
    "TLE_LINE2": "2 65356  53.1592 358.4436 0001191  90.6531 269.4606 15.30227931 11155",
    "COMMENT": "Grouped by shell and plane from TLE"
  },
  {
    "OBJECT_NAME": "STARLINK-34860",
    "OBJECT_ID": "25190G",
    "EPOCH": "2025-11-11T06:27:25.667712",
    "MEAN_MOTION": 15.30230522,
    "ECCENTRICITY": 0.0001481,
    "INCLINATION": 53.1597,
    "RA_OF_ASC_NODE": 358.2956,
    "ARG_OF_PERICENTER": 65.9895,
    "MEAN_ANOMALY": 294.126,
    "EPHEMERIS_TYPE": 0,
    "CLASSIFICATION_TYPE": "U",
    "NORAD_CAT_ID": 65357,
    "ELEMENT_SET_NO": 999,
    "REV_AT_EPOCH": 1115,
    "BSTAR": 0.0019114000000000002,
    "MEAN_MOTION_DOT": 0.00056739,
    "MEAN_MOTION_DDOT": 0.0,
    "TLE_LINE1": "1 65357U 25190G   25315.26904708  .00056739  00000+0  19114-2 0  9992",
    "TLE_LINE2": "2 65357  53.1597 358.2956 0001481  65.9895 294.1260 15.30230522 11157",
    "COMMENT": "Grouped by shell and plane from TLE"
  },
  {
    "OBJECT_NAME": "STARLINK-34782",
    "OBJECT_ID": "25190H",
    "EPOCH": "2025-11-11T07:09:49.710528",
    "MEAN_MOTION": 15.30230488,
    "ECCENTRICITY": 0.0001571,
    "INCLINATION": 53.1593,
    "RA_OF_ASC_NODE": 357.7674,
    "ARG_OF_PERICENTER": 84.5517,
    "MEAN_ANOMALY": 275.5663,
    "EPHEMERIS_TYPE": 0,
    "CLASSIFICATION_TYPE": "U",
    "NORAD_CAT_ID": 65358,
    "ELEMENT_SET_NO": 999,
    "REV_AT_EPOCH": 1163,
    "BSTAR": 0.0014771,
    "MEAN_MOTION_DOT": 0.00043688,
    "MEAN_MOTION_DDOT": 0.0,
    "TLE_LINE1": "1 65358U 25190H   25315.29849202  .00043688  00000+0  14771-2 0  9996",
    "TLE_LINE2": "2 65358  53.1593 357.7674 0001571  84.5517 275.5663 15.30230488 11637",
    "COMMENT": "Grouped by shell and plane from TLE"
  },
  {
    "OBJECT_NAME": "STARLINK-34760",
    "OBJECT_ID": "25190J",
    "EPOCH": "2025-11-11T07:26:31.761312",
    "MEAN_MOTION": 15.30194873,
    "ECCENTRICITY": 0.0001354,
    "INCLINATION": 53.162,
    "RA_OF_ASC_NODE": 357.8345,
    "ARG_OF_PERICENTER": 78.3788,
    "MEAN_ANOMALY": 281.7365,
    "EPHEMERIS_TYPE": 0,
    "CLASSIFICATION_TYPE": "U",
    "NORAD_CAT_ID": 65359,
    "ELEMENT_SET_NO": 999,
    "REV_AT_EPOCH": 1116,
    "BSTAR": 0.0019484,
    "MEAN_MOTION_DOT": 0.00057788,
    "MEAN_MOTION_DDOT": 0.0,
    "TLE_LINE1": "1 65359U 25190J   25315.31008983  .00057788  00000+0  19484-2 0  9995",
    "TLE_LINE2": "2 65359  53.1620 357.8345 0001354  78.3788 281.7365 15.30194873 11168",
    "COMMENT": "Grouped by shell and plane from TLE"
  },
  {
    "OBJECT_NAME": "STARLINK-34826",
    "OBJECT_ID": "25190K",
    "EPOCH": "2025-11-11T06:39:34.736832",
    "MEAN_MOTION": 15.30198515,
    "ECCENTRICITY": 0.0001338,
    "INCLINATION": 53.1592,
    "RA_OF_ASC_NODE": 358.3429,
    "ARG_OF_PERICENTER": 72.2367,
    "MEAN_ANOMALY": 287.878,
    "EPHEMERIS_TYPE": 0,
    "CLASSIFICATION_TYPE": "U",
    "NORAD_CAT_ID": 65360,
    "ELEMENT_SET_NO": 999,
    "REV_AT_EPOCH": 1115,
    "BSTAR": 0.0006223499999999999,
    "MEAN_MOTION_DOT": 0.00018117,
    "MEAN_MOTION_DDOT": 0.0,
    "TLE_LINE1": "1 65360U 25190K   25315.27748538  .00018117  00000+0  62235-3 0  9995",
    "TLE_LINE2": "2 65360  53.1592 358.3429 0001338  72.2367 287.8780 15.30198515 11159",
    "COMMENT": "Grouped by shell and plane from TLE"
  },
  {
    "OBJECT_NAME": "STARLINK-34800",
    "OBJECT_ID": "25190L",
    "EPOCH": "2025-11-11T07:08:17.204640",
    "MEAN_MOTION": 15.3019118,
    "ECCENTRICITY": 0.0001335,
    "INCLINATION": 53.1601,
    "RA_OF_ASC_NODE": 357.754,
    "ARG_OF_PERICENTER": 121.3032,
    "MEAN_ANOMALY": 238.8099,
    "EPHEMERIS_TYPE": 0,
    "CLASSIFICATION_TYPE": "U",
    "NORAD_CAT_ID": 65361,
    "ELEMENT_SET_NO": 999,
    "REV_AT_EPOCH": 1116,
    "BSTAR": 0.0019347000000000001,
    "MEAN_MOTION_DOT": 0.00057369,
    "MEAN_MOTION_DDOT": 0.0,
    "TLE_LINE1": "1 65361U 25190L   25315.29742135  .00057369  00000+0  19347-2 0  9992",
    "TLE_LINE2": "2 65361  53.1601 357.7540 0001335 121.3032 238.8099 15.30191180 11161",
    "COMMENT": "Grouped by shell and plane from TLE"
  }
]